name	loc	city	state	news_wiki	city_wiki	lat	long	url	robots_url	robots_sitemap_urls	sitemap_url1	sitemap_url2	sitemap_url3	sitemap_url_template1	sitemap_url_template2																																																																																																																																																																																																									
The Morning Call	Allentown, Pennsylvania	Allentown	Pennsylvania	https://en.wikipedia.org/wiki/The_Morning_Call	https://en.wikipedia.org/wiki/Allentown,_Pennsylvania	40deg36'06''N	75deg28'38''W	http://mcall.com/	http://mcall.com/robots.txt	['https://www.mcall.com/arcio/sitemap-index/']	https://www.mcall.com/sitemap-story-1.xml																																																																																																																																																																																																													
Anchorage Daily News	Anchorage, Alaska	Anchorage	Alaska	https://en.wikipedia.org/wiki/Anchorage_Daily_News	https://en.wikipedia.org/wiki/Anchorage,_Alaska	61deg13'N	149deg54'W	http://www.adn.com	http://www.adn.com/robots.txt	['http://www.adn.com/feeds/sitemap/']	https://www.adn.com/feeds/sitemap/																																																																																																																																																																																																													
Anchorage Press	Anchorage, Alaska	Anchorage	Alaska	https://en.wikipedia.org/wiki/Anchorage_Press	https://en.wikipedia.org/wiki/Anchorage,_Alaska	61deg13'N	149deg54'W	http://anchoragepress.com/	http://anchoragepress.com/robots.txt	['https://www.anchoragepress.com/sitemap.xml']	https://www.anchoragepress.com/tncms/sitemap/news.xml																																																																																																																																																																																																													
Petroleum News	Anchorage, Alaska	Anchorage	Alaska	https://en.wikipedia.org/wiki/Petroleum_News	https://en.wikipedia.org/wiki/Anchorage,_Alaska	61deg13'N	149deg54'W			[]																																																																																																																																																																																																														
The Ann Arbor News	Ann Arbor, Michigan	Ann Arbor	Michigan	https://en.wikipedia.org/wiki/The_Ann_Arbor_News	https://en.wikipedia.org/wiki/Ann_Arbor,_Michigan	42deg16'53''N	83deg44'54''W	https://www.mlive.com/ann-arbor/	https://www.mlive.com/robots.txt	['https://www.mlive.com/arcio/news-sitemap/']	https://www.mlive.com/arcio/news-sitemap/																																																																																																																																																																																																													
The Michigan Daily	Ann Arbor, Michigan	Ann Arbor	Michigan	https://en.wikipedia.org/wiki/The_Michigan_Daily	https://en.wikipedia.org/wiki/Ann_Arbor,_Michigan	42deg16'53''N	83deg44'54''W	http://www.michigandaily.com/	http://www.michigandaily.com/robots.txt	[]																																																																																																																																																																																																														
Atlanta Journal-Constitution	Atlanta, Georgia	Atlanta	Georgia	https://en.wikipedia.org/wiki/Atlanta_Journal-Constitution	https://en.wikipedia.org/wiki/Atlanta,_Georgia	33deg45'18''N	84deg23'24''W	http://www.ajc.com	http://www.ajc.com/robots.txt	[]	https://www.ajc.com/sitemap-latest-stories.xml																																																																																																																																																																																																													
Creative Loafing	Atlanta, Georgia	Atlanta	Georgia	https://en.wikipedia.org/wiki/Creative_Loafing	https://en.wikipedia.org/wiki/Atlanta,_Georgia	33deg45'18''N	84deg23'24''W	https://creativeloafing.com	https://creativeloafing.com/robots.txt	['https://creativeloafing.com/sitemap.xml']																																																																																																																																																																																																														
Marietta Daily Journal	Atlanta, Georgia	Atlanta	Georgia	https://en.wikipedia.org/wiki/Marietta_Daily_Journal	https://en.wikipedia.org/wiki/Atlanta,_Georgia	33deg45'18''N	84deg23'24''W	http://www.mdjonline.com	http://www.mdjonline.com/robots.txt	['https://www.mdjonline.com/sitemap.xml']	https://www.mdjonline.com/tncms/sitemap/news.xml																																																																																																																																																																																																													
The Augusta Chronicle	Augusta, Georgia	Augusta	Georgia	https://en.wikipedia.org/wiki/The_Augusta_Chronicle	https://en.wikipedia.org/wiki/Augusta,_Georgia	33deg28'N	81deg58'W	http://chronicle.augusta.com/	http://chronicle.augusta.com/robots.txt	[]																																																																																																																																																																																																														
Aurora Sentinel	Aurora, Colorado	Aurora	Colorado	https://en.wikipedia.org/wiki/Aurora_Sentinel	https://en.wikipedia.org/wiki/Aurora,_Colorado	39deg42'39''N	104deg48'45''W	http://www.sentinelcolorado.com/	http://www.sentinelcolorado.com/robots.txt	[]																																																																																																																																																																																																														
Austin American-Statesman	Austin, Texas	Austin	Texas	https://en.wikipedia.org/wiki/Austin_American-Statesman	https://en.wikipedia.org/wiki/Austin,_Texas	30deg16'2''N	97deg44'35''W	http://www.statesman.com/	http://www.statesman.com/robots.txt	['http://www.statesman.com/section/google-news-sitemap', 'http://www.statesman.com/section/google-recent-sitemap-index', 'http://www.statesman.com/section/google-sitemap-index', 'http://www.statesman.com/section/google-gal-sitemap-index', 'http://www.statesman.com/section/google-zz-sitemap-index']	https://www.statesman.com/section/google-recent-sitemap																																																																																																																																																																																																													
Austin Business Journal	Austin, Texas	Austin	Texas	https://en.wikipedia.org/wiki/Austin_Business_Journal	https://en.wikipedia.org/wiki/Austin,_Texas	30deg16'2''N	97deg44'35''W	http://acbj.com/	http://acbj.com/robots.txt	[]																																																																																																																																																																																																														
Austin Chronicle	Austin, Texas	Austin	Texas	https://en.wikipedia.org/wiki/Austin_Chronicle	https://en.wikipedia.org/wiki/Austin,_Texas	30deg16'2''N	97deg44'35''W	http://austinchronicle.com	http://austinchronicle.com/robots.txt	[]																																																																																																																																																																																																														
Bakersfield Californian	Bakersfield, California	Bakersfield	California	https://en.wikipedia.org/wiki/Bakersfield_Californian	https://en.wikipedia.org/wiki/Bakersfield,_California	35deg22'N	119deg1'W	http://www.bakersfield.com	http://www.bakersfield.com/robots.txt	['https://www.bakersfield.com/sitemap.xml']	https://www.bakersfield.com/tncms/sitemap/news.xml																																																																																																																																																																																																													
The Baltimore Afro-American	Baltimore, Maryland	Baltimore	Maryland	https://en.wikipedia.org/wiki/The_Baltimore_Afro-American	https://en.wikipedia.org/wiki/Baltimore,_Maryland	39deg17'N	76deg37'W	http://afro.com	http://afro.com/robots.txt	[]																																																																																																																																																																																																														
Baltimore Business Journal	Baltimore, Maryland	Baltimore	Maryland	https://en.wikipedia.org/wiki/Baltimore_Business_Journal	https://en.wikipedia.org/wiki/Baltimore,_Maryland	39deg17'N	76deg37'W	http://acbj.com/	http://acbj.com/robots.txt	[]																																																																																																																																																																																																														
The Baltimore Sun	Baltimore, Maryland	Baltimore	Maryland	https://en.wikipedia.org/wiki/The_Baltimore_Sun	https://en.wikipedia.org/wiki/Baltimore,_Maryland	39deg17'N	76deg37'W	http://baltimoresun.com	http://baltimoresun.com/robots.txt	['https://www.baltimoresun.com/arcio/sitemap-index/']	https://www.baltimoresun.com/arcio/news-sitemap/	https://www.baltimoresun.com/arcio/sitemap/?from=100																																																																																																																																																																																																												
Daily Record	Baltimore, Maryland	Baltimore	Maryland	https://en.wikipedia.org/wiki/Daily_Record_(Maryland)	https://en.wikipedia.org/wiki/Baltimore,_Maryland	39deg17'N	76deg37'W	http://www.thedailyrecord.com	http://www.thedailyrecord.com/robots.txt	[]																																																																																																																																																																																																														
The Advocate	Baton Rouge, Louisiana	Baton Rouge	Louisiana	https://en.wikipedia.org/wiki/The_Advocate_(Baton_Rouge)	https://en.wikipedia.org/wiki/Baton_Rouge,_Louisiana	30deg26'51''N	91deg10'43''W	http://theadvocate.com	http://theadvocate.com/robots.txt	['https://www.theadvocate.com/sitemap.xml', 'https://www.theadvocate.com/tncms/sitemap/editorial.xml']	https://www.theadvocate.com/tncms/sitemap/news.xml																																																																																																																																																																																																													
The Birmingham News	Birmingham, Alabama	Birmingham	Alabama	https://en.wikipedia.org/wiki/The_Birmingham_News	https://en.wikipedia.org/wiki/Birmingham,_Alabama	33deg39'12''N	86deg48'32''W	http://www.al.com/birmingham/	http://www.al.com/robots.txt	['https://www.al.com/arcio/news-sitemap/']	https://www.al.com/arcio/news-sitemap/																																																																																																																																																																																																													
Idaho Statesman	Boise, Idaho	Boise	Idaho	https://en.wikipedia.org/wiki/Idaho_Statesman	https://en.wikipedia.org/wiki/Boise,_Idaho	43deg36'57''N	116deg12'6''W	http://www.idahostatesman.com/	http://www.idahostatesman.com/robots.txt	['https://www.idahostateman.com/sitemap/story/update.xml', 'https://www.idahostateman.com/sitemap/story/archive.xml', 'https://www.idahostateman.com/sitemap/story/googlenews.xml', 'https://www.idahostateman.com/sitemap/blogpost/update.xml', 'https://www.idahostateman.com/sitemap/blogpost/archive.xml', 'https://www.idahostateman.com/sitemap/blogpost/googlenews.xml', 'https://www.idahostateman.com/sitemap/video/update.xml', 'https://www.idahostateman.com/sitemap/video/archive.xml', 'https://www.idahostateman.com/sitemap/update/sections.xml', 'https://www.idahostateman.com/sitemap/archive/sections.xml']	https://www.idahostatesman.com/sitemap/googlenews/story.xml																																																																																																																																																																																																													
Boston Business Journal	Boston, Massachusetts	Boston	Massachusetts	https://en.wikipedia.org/wiki/Boston_Business_Journal	https://en.wikipedia.org/wiki/Boston,_Massachusetts	42deg21'29''N	71deg03'49''W	http://www.bizjournals.com/boston/	http://www.bizjournals.com/robots.txt	['https://www.bizjournals.com/sitemap.xml', 'https://www.bizjournals.com/sitemap_news.xml']	https://www.bizjournals.com/sitemaps/news/googlenews_boston.xml																																																																																																																																																																																																													
The Boston Globe	Boston, Massachusetts	Boston	Massachusetts	https://en.wikipedia.org/wiki/The_Boston_Globe	https://en.wikipedia.org/wiki/Boston,_Massachusetts	42deg21'29''N	71deg03'49''W	https://www.bostonglobe.com	https://www.bostonglobe.com/robots.txt	['https://www.bostonglobe.com/arcio/sitemap/', 'https://www.bostonglobe.com/arcio/news-sitemap/']	https://www.bostonglobe.com/arcio/news-sitemap/																																																																																																																																																																																																													
Boston Herald	Boston, Massachusetts	Boston	Massachusetts	https://en.wikipedia.org/wiki/Boston_Herald	https://en.wikipedia.org/wiki/Boston,_Massachusetts	42deg21'29''N	71deg03'49''W	http://www.bostonherald.com/	http://www.bostonherald.com/robots.txt	['https://www.bostonherald.com/sitemap.xml']	https://www.bostonherald.com/sitemap.xml?yyyy=2020&mm=03&dd=29				https://www.bostonherald.com/sitemap.xml?yyyy=%Y&mm=%m&dd=%d																																																																																																																																																																																																									
The Buffalo News	Buffalo, New York	Buffalo	New York	https://en.wikipedia.org/wiki/The_Buffalo_News	https://en.wikipedia.org/wiki/Buffalo,_New_York	42deg54'17''N	78deg50'58''W	http://www.buffalonews.com	http://www.buffalonews.com/robots.txt	['https://buffalonews.com/sitemap/index.xml']																																																																																																																																																																																																														
The Post and Courier	Charleston, South Carolina	Charleston	South Carolina	https://en.wikipedia.org/wiki/The_Post_and_Courier	https://en.wikipedia.org/wiki/Charleston,_South_Carolina	32deg47'00''N	79deg56'00''W	http://www.postandcourier.com	http://www.postandcourier.com/robots.txt	['https://www.postandcourier.com/sitemap.xml', 'https://www.postandcourier.com/tncms/sitemap/editorial.xml']	https://www.postandcourier.com/tncms/sitemap/news.xml																																																																																																																																																																																																													
The Charlotte Observer	Charlotte, North Carolina	Charlotte	North Carolina	https://en.wikipedia.org/wiki/The_Charlotte_Observer	https://en.wikipedia.org/wiki/Charlotte,_North_Carolina	35deg13'38''N	80deg50'35''W	http://charlotteobserver.com	http://charlotteobserver.com/robots.txt	['https://www.charlotteobserver.com/sitemap/story/update.xml', 'https://www.charlotteobserver.com/sitemap/story/archive.xml', 'https://www.charlotteobserver.com/sitemap/story/googlenews.xml', 'https://www.charlotteobserver.com/sitemap/blogpost/update.xml', 'https://www.charlotteobserver.com/sitemap/blogpost/archive.xml', 'https://www.charlotteobserver.com/sitemap/blogpost/googlenews.xml', 'https://www.charlotteobserver.com/sitemap/video/update.xml', 'https://www.charlotteobserver.com/sitemap/video/archive.xml', 'https://www.charlotteobserver.com/sitemap/update/sections.xml', 'https://www.charlotteobserver.com/sitemap/archive/sections.xml']	https://www.charlotteobserver.com/sitemap/story/googlenews.xml																																																																																																																																																																																																													
Chattanooga Times Free Press	Chattanooga, Tennessee	Chattanooga	Tennessee	https://en.wikipedia.org/wiki/Chattanooga_Times_Free_Press	https://en.wikipedia.org/wiki/Chattanooga,_Tennessee	35deg2'44''N	85deg16'2''W	http://timesfreepress.com/	http://timesfreepress.com/robots.txt	[]																																																																																																																																																																																																														
Chicago Sun-Times	Chicago, Illinois	Chicago	Illinois	https://en.wikipedia.org/wiki/Chicago_Sun-Times	https://en.wikipedia.org/wiki/Chicago,_Illinois	41deg52'55''N	87deg37'40''W	https://chicago.suntimes.com	https://chicago.suntimes.com/robots.txt	['https://chicago.suntimes.com/sitemaps', 'https://chicago.suntimes.com/sitemaps/authors', 'https://chicago.suntimes.com/sitemaps/groups', 'https://chicago.suntimes.com/sitemaps/videos', 'https://chicago.suntimes.com/sitemaps/google_news']	https://chicago.suntimes.com/sitemaps/google_news																																																																																																																																																																																																													
Chicago Tribune	Chicago, Illinois	Chicago	Illinois	https://en.wikipedia.org/wiki/Chicago_Tribune	https://en.wikipedia.org/wiki/Chicago,_Illinois	41deg52'55''N	87deg37'40''W	http://chicagotribune.com	http://chicagotribune.com/robots.txt	['https://www.chicagotribune.com/arcio/sitemap-index/']	https://www.chicagotribune.com/arcio/news-sitemap/																																																																																																																																																																																																													
The Cincinnati Enquirer	Cincinnati, Ohio	Cincinnati	Ohio	https://en.wikipedia.org/wiki/The_Cincinnati_Enquirer	https://en.wikipedia.org/wiki/Cincinnati,_Ohio	39deg6'N	84deg31'W	http://www.cincinnati.com/	http://www.cincinnati.com/robots.txt	['https://www.cincinnati.com/news-sitemap.xml', 'https://www.cincinnati.com/web-sitemap-index.xml', 'https://www.cincinnati.com/video-sitemap-index.xml']	https://www.cincinnati.com/news-sitemap.xml																																																																																																																																																																																																													
City Beat	Cincinnati, Ohio	Cincinnati	Ohio	https://en.wikipedia.org/wiki/Cincinnati_City_Beat	https://en.wikipedia.org/wiki/Cincinnati,_Ohio	39deg6'N	84deg31'W	http://citybeat.com	http://citybeat.com/robots.txt	['https://www.citybeat.com/sitemap.xml', 'https://www.citybeat.com/sitemap-google-news.xml']	https://www.citybeat.com/sitemap-google-news.xml																																																																																																																																																																																																													
Cleveland Scene	Cleveland, Ohio	Cleveland	Ohio	https://en.wikipedia.org/wiki/Cleveland_Scene	https://en.wikipedia.org/wiki/Cleveland,_Ohio	41deg28'56''N	81deg40'11''W	https://www.clevescene.com/	https://www.clevescene.com/robots.txt	['https://www.clevescene.com/cleveland/Sitemap.xml']	https://www.clevescene.com/cleveland/Sitemap.xml?id=News																																																																																																																																																																																																													
The Plain Dealer	Cleveland, Ohio	Cleveland	Ohio	https://en.wikipedia.org/wiki/The_Plain_Dealer	https://en.wikipedia.org/wiki/Cleveland,_Ohio	41deg28'56''N	81deg40'11''W	http://www.cleveland.com/	http://www.cleveland.com/robots.txt	['https://www.cleveland.com/arcio/news-sitemap/']	https://www.cleveland.com/arcio/news-sitemap/																																																																																																																																																																																																													
The Gazette	Colorado Springs, Colorado	Colorado Springs	Colorado	https://en.wikipedia.org/wiki/The_Gazette_(Colorado_Springs)	https://en.wikipedia.org/wiki/Colorado_Springs,_Colorado	38deg50'02''N	104deg49'31''W	http://www.gazette.com	http://www.gazette.com/robots.txt	['https://gazette.com/sitemap.xml']	https://gazette.com/tncms/sitemap/news.xml																																																																																																																																																																																																													
Ledger-Enquirer	Columbus, Georgia	Columbus	Georgia	https://en.wikipedia.org/wiki/Ledger-Enquirer	https://en.wikipedia.org/wiki/Columbus,_Georgia	32deg29'32''N	84deg56'25''W	http://www.ledger-enquirer.com/	http://www.ledger-enquirer.com/robots.txt	['https://www.ledger-enquirer.com/sitemap/story/update.xml', 'https://www.ledger-enquirer.com/sitemap/story/archive.xml', 'https://www.ledger-enquirer.com/sitemap/story/googlenews.xml', 'https://www.ledger-enquirer.com/sitemap/blogpost/update.xml', 'https://www.ledger-enquirer.com/sitemap/blogpost/archive.xml', 'https://www.ledger-enquirer.com/sitemap/blogpost/googlenews.xml', 'https://www.ledger-enquirer.com/sitemap/video/update.xml', 'https://www.ledger-enquirer.com/sitemap/video/archive.xml', 'https://www.ledger-enquirer.com/sitemap/update/sections.xml', 'https://www.ledger-enquirer.com/sitemap/archive/sections.xml']	https://www.ledger-enquirer.com/sitemap/story/googlenews.xml	https://www.ledger-enquirer.com/sitemap/story/update.xml																																																																																																																																																																																																												
The Columbus Dispatch	Columbus, Ohio	Columbus	Ohio	https://en.wikipedia.org/wiki/The_Columbus_Dispatch	https://en.wikipedia.org/wiki/Columbus,_Ohio	39deg57'44''N	83deg00'02''W	http://dispatch.com	http://dispatch.com/robots.txt	['http://dispatch.com/section/google-news-sitemap', 'http://dispatch.com/section/google-recent-sitemap-index', 'http://dispatch.com/section/google-sitemap-index', 'http://dispatch.com/section/google-gal-sitemap-index', 'http://dispatch.com/section/google-zz-sitemap-index']	https://www.dispatch.com/section/google-recent-sitemap																																																																																																																																																																																																													
Corpus Christi Caller-Times	Corpus Christi, Texas	Corpus Christi	Texas	https://en.wikipedia.org/wiki/Corpus_Christi_Caller-Times	https://en.wikipedia.org/wiki/Corpus_Christi,_Texas	27deg44'34''N	97deg24'7''W	http://caller.com	http://caller.com/robots.txt	['https://www.caller.com/news-sitemap.xml', 'https://www.caller.com/web-sitemap-index.xml', 'https://www.caller.com/video-sitemap-index.xml']	https://www.caller.com/news-sitemap.xml																																																																																																																																																																																																													
The Dallas Morning News	Dallas, Texas	Dallas	Texas	https://en.wikipedia.org/wiki/The_Dallas_Morning_News	https://en.wikipedia.org/wiki/Dallas,_Texas	32deg46'45''N	96deg48'32''W	https://www.dallasnews.com/	https://www.dallasnews.com/robots.txt	[]																																																																																																																																																																																																														
Dallas Observer	Dallas, Texas	Dallas	Texas	https://en.wikipedia.org/wiki/Dallas_Observer	https://en.wikipedia.org/wiki/Dallas,_Texas	32deg46'45''N	96deg48'32''W	http://dallasobserver.com	http://dallasobserver.com/robots.txt	['https://www.dallasobserver.com/sitemap/content/']	https://www.dallasobserver.com/sitemap/content/1																																																																																																																																																																																																													
The Dayton Daily News	Dayton, Ohio	Dayton	Ohio	https://en.wikipedia.org/wiki/The_Dayton_Daily_News	https://en.wikipedia.org/wiki/Dayton,_Ohio	39deg45'34''N	84deg11'30''W	http://www.daytondailynews.com/	http://www.daytondailynews.com/robots.txt	[]																																																																																																																																																																																																														
Denver Post	Denver, Colorado	Denver	Colorado	https://en.wikipedia.org/wiki/Denver_Post	https://en.wikipedia.org/wiki/Denver,_Colorado	39deg44'21''N	104deg59'25''W	http://www.denverpost.com/	http://www.denverpost.com/robots.txt	['https://www.denverpost.com/sitemap.xml']	https://www.denverpost.com/sitemap.xml?yyyy=2020&mm=03&dd=29				https://www.denverpost.com/sitemap.xml?yyyy=%Y&mm=%m&dd=%d																																																																																																																																																																																																									
The Des Moines Register	Des Moines, Iowa	Des Moines	Iowa	https://en.wikipedia.org/wiki/The_Des_Moines_Register	https://en.wikipedia.org/wiki/Des_Moines,_Iowa	41deg35'27''N	93deg37'15''W	https://www.desmoinesregister.com	https://www.desmoinesregister.com/robots.txt	['https://www.desmoinesregister.com/news-sitemap.xml', 'https://www.desmoinesregister.com/web-sitemap-index.xml', 'https://www.desmoinesregister.com/video-sitemap-index.xml']	https://www.desmoinesregister.com/news-sitemap.xml																																																																																																																																																																																																													
The Detroit Free Press	Detroit, Michigan	Detroit	Michigan	https://en.wikipedia.org/wiki/Detroit_Free_Press	https://en.wikipedia.org/wiki/Detroit,_Michigan	42deg19'53''N	83deg02'45''W	https://www.freep.com	https://www.freep.com/robots.txt	['https://www.freep.com/news-sitemap.xml', 'https://www.freep.com/web-sitemap-index.xml', 'https://www.freep.com/video-sitemap-index.xml']	https://www.freep.com/news-sitemap.xml																																																																																																																																																																																																													
The Detroit News	Detroit, Michigan	Detroit	Michigan	https://en.wikipedia.org/wiki/The_Detroit_News	https://en.wikipedia.org/wiki/Detroit,_Michigan	42deg19'53''N	83deg02'45''W	https://www.detroitnews.com	https://www.detroitnews.com/robots.txt	['https://www.detroitnews.com/news-sitemap.xml', 'https://www.detroitnews.com/web-sitemap-index.xml', 'https://www.detroitnews.com/video-sitemap-index.xml']	https://www.detroitnews.com/news-sitemap.xml																																																																																																																																																																																																													
The Herald-Sun (Durham, North Carolina)	Durham, North Carolina	Durham	North Carolina	https://en.wikipedia.org/wiki/The_Herald-Sun_(Durham,_North_Carolina)	https://en.wikipedia.org/wiki/Durham,_North_Carolina	35deg59'19''N	78deg54'26''W	http://heraldsun.com/	http://heraldsun.com/robots.txt	['https://www.heraldsun.com/sitemap/story/update.xml', 'https://www.heraldsun.com/sitemap/story/archive.xml', 'https://www.heraldsun.com/sitemap/story/googlenews.xml', 'https://www.heraldsun.com/sitemap/blogpost/update.xml', 'https://www.heraldsun.com/sitemap/blogpost/archive.xml', 'https://www.heraldsun.com/sitemap/blogpost/googlenews.xml', 'https://www.heraldsun.com/sitemap/video/update.xml', 'https://www.heraldsun.com/sitemap/video/archive.xml', 'https://www.heraldsun.com/sitemap/update/sections.xml', 'https://www.heraldsun.com/sitemap/archive/sections.xml']	https://www.heraldsun.com/sitemap/video/archive/8.xml																																																																																																																																																																																																													
The Carolina Times	Durham, North Carolina	Durham	North Carolina	https://en.wikipedia.org/wiki/The_Carolina_Times	https://en.wikipedia.org/wiki/Durham,_North_Carolina	35deg59'19''N	78deg54'26''W			[]																																																																																																																																																																																																														
Indy Week	Durham, North Carolina	Durham	North Carolina	https://en.wikipedia.org/wiki/Indy_Week	https://en.wikipedia.org/wiki/Durham,_North_Carolina	35deg59'19''N	78deg54'26''W	http://www.indyweek.com	http://www.indyweek.com/robots.txt	['https://indyweek.com/sitemap.xml', 'https://indyweek.com/sitemap_news.xml']	https://indyweek.com/sitemap_news.xml																																																																																																																																																																																																													
El Paso Times	El Paso, Texas	El Paso	Texas	https://en.wikipedia.org/wiki/El_Paso_Times	https://en.wikipedia.org/wiki/El_Paso,_Texas	31deg45'33''N	106deg29'19''W	http://elpasotimes.com/	http://elpasotimes.com/robots.txt	['https://www.elpasotimes.com/news-sitemap.xml', 'https://www.elpasotimes.com/web-sitemap-index.xml', 'https://www.elpasotimes.com/video-sitemap-index.xml']	https://www.elpasotimes.com/news-sitemap.xml			https://www.gannett-cdn.com/sitemaps/PTX1/video/video-sitemap-%Y-%m.xml																																																																																																																																																																																																										
Erie Times-News	Erie, Pennsylvania	Erie	Pennsylvania	https://en.wikipedia.org/wiki/Erie_Times-News	https://en.wikipedia.org/wiki/Erie,_Pennsylvania	42deg7'46''N	80deg5'6''W	http://goerie.com	http://goerie.com/robots.txt	['http://goerie.com/section/google-news-sitemap', 'http://goerie.com/section/google-recent-sitemap-index', 'http://goerie.com/section/google-sitemap-index', 'http://goerie.com/section/google-gal-sitemap-index', 'http://goerie.com/section/google-zz-sitemap-index']	https://www.goerie.com/section/google-news-sitemap																																																																																																																																																																																																													
The Eugene Register-Guard	Eugene, Oregon	Eugene	Oregon	https://en.wikipedia.org/wiki/The_Eugene_Register-Guard	https://en.wikipedia.org/wiki/Eugene,_Oregon	44deg03'07''N	123deg05'12''W	http://registerguard.com	http://registerguard.com/robots.txt	['http://registerguard.com/section/google-news-sitemap', 'http://registerguard.com/section/google-recent-sitemap-index', 'http://registerguard.com/section/google-sitemap-index', 'http://registerguard.com/section/google-gal-sitemap-index', 'http://registerguard.com/section/google-zz-sitemap-index']	https://www.registerguard.com/section/google-news-sitemap	https://www.registerguard.com/section/google-recent-sitemap																																																																																																																																																																																																												
The Forum of Fargo-Moorhead	Fargo, North Dakota	Fargo	North Dakota	https://en.wikipedia.org/wiki/The_Forum_of_Fargo-Moorhead	https://en.wikipedia.org/wiki/Fargo,_North_Dakota	46deg52'38''N	96deg47'22''W	http://inforum.com	http://inforum.com/robots.txt	[]																																																																																																																																																																																																														
The Fayetteville Observer	Fayetteville, North Carolina	Fayetteville	North Carolina	https://en.wikipedia.org/wiki/The_Fayetteville_Observer	https://en.wikipedia.org/wiki/Fayetteville,_North_Carolina	35deg3'9''N	78deg52'41''W	http://www.fayobserver.com	http://www.fayobserver.com/robots.txt	['http://www.fayobserver.com/section/google-news-sitemap', 'http://www.fayobserver.com/section/google-recent-sitemap-index', 'http://www.fayobserver.com/section/google-sitemap-index', 'http://www.fayobserver.com/section/google-gal-sitemap-index', 'http://www.fayobserver.com/section/google-zz-sitemap-index']	https://www.fayobserver.com/section/google-news-sitemap																																																																																																																																																																																																													
Acento Latino	Fayetteville, North Carolina	Fayetteville	North Carolina	https://en.wikipedia.org/wiki/Acento_Latino	https://en.wikipedia.org/wiki/Fayetteville,_North_Carolina	35deg3'9''N	78deg52'41''W			[]																																																																																																																																																																																																														
The Flint Journal	Flint, Michigan	Flint	Michigan	https://en.wikipedia.org/wiki/The_Flint_Journal	https://en.wikipedia.org/wiki/Flint,_Michigan	43deg01'08''N	83deg41'36''W	http://www.mlive.com/flint/	http://www.mlive.com/robots.txt	['https://www.mlive.com/arcio/news-sitemap/']	https://www.mlive.com/arcio/news-sitemap/																																																																																																																																																																																																													
Fort Wayne Journal Gazette	Fort Wayne, Indiana	Fort Wayne	Indiana	https://en.wikipedia.org/wiki/Fort_Wayne_Journal_Gazette	https://en.wikipedia.org/wiki/Fort_Wayne,_Indiana	41deg04'49.62''N	85deg08'20.94''W			[]																																																																																																																																																																																																														
Fort Wayne News Sentinel	Fort Wayne, Indiana	Fort Wayne	Indiana	https://en.wikipedia.org/wiki/Fort_Wayne_News_Sentinel	https://en.wikipedia.org/wiki/Fort_Wayne,_Indiana	41deg04'49.62''N	85deg08'20.94''W	http://www.news-sentinel.com/	http://www.news-sentinel.com/robots.txt	[]																																																																																																																																																																																																														
Fort Worth Star-Telegram	Fort Worth, Texas	Fort Worth	Texas	https://en.wikipedia.org/wiki/Fort_Worth_Star-Telegram	https://en.wikipedia.org/wiki/Fort_Worth,_Texas	32deg45'N	97deg20'W	http://www.star-telegram.com	http://www.star-telegram.com/robots.txt	['https://www.star-telegram.com/sitemap/story/update.xml', 'https://www.star-telegram.com/sitemap/story/archive.xml', 'https://www.star-telegram.com/sitemap/story/googlenews.xml', 'https://www.star-telegram.com/sitemap/blogpost/update.xml', 'https://www.star-telegram.com/sitemap/blogpost/archive.xml', 'https://www.star-telegram.com/sitemap/blogpost/googlenews.xml', 'https://www.star-telegram.com/sitemap/video/update.xml', 'https://www.star-telegram.com/sitemap/video/archive.xml', 'https://www.star-telegram.com/sitemap/update/sections.xml', 'https://www.star-telegram.com/sitemap/archive/sections.xml']	https://www.star-telegram.com/sitemap/story/googlenews.xml	https://www.star-telegram.com/sitemap/story/update.xml																																																																																																																																																																																																												
The Fresno Bee	Fresno, California	Fresno	California	https://en.wikipedia.org/wiki/The_Fresno_Bee	https://en.wikipedia.org/wiki/Fresno,_California	36deg45'N	119deg46'W	http://www.fresnobee.com/	http://www.fresnobee.com/robots.txt	['https://www.fresnobee.com/sitemap/story/update.xml', 'https://www.fresnobee.com/sitemap/story/archive.xml', 'https://www.fresnobee.com/sitemap/story/googlenews.xml', 'https://www.fresnobee.com/sitemap/blogpost/update.xml', 'https://www.fresnobee.com/sitemap/blogpost/archive.xml', 'https://www.fresnobee.com/sitemap/blogpost/googlenews.xml', 'https://www.fresnobee.com/sitemap/video/update.xml', 'https://www.fresnobee.com/sitemap/video/archive.xml', 'https://www.fresnobee.com/sitemap/update/sections.xml', 'https://www.fresnobee.com/sitemap/archive/sections.xml']	https://www.fresnobee.com/sitemap/story/googlenews.xml	https://www.fresnobee.com/sitemap/story/update.xml																																																																																																																																																																																																												
Grand Rapids Press	Grand Rapids, Michigan	Grand Rapids	Michigan	https://en.wikipedia.org/wiki/Grand_Rapids_Press	https://en.wikipedia.org/wiki/Grand_Rapids,_Michigan	42deg57'40''N	85deg39'20''W	/wiki/OregonLive.com		[]																																																																																																																																																																																																														
News & Record	Greensboro, North Carolina	Greensboro	North Carolina	https://en.wikipedia.org/wiki/News_%26_Record	https://en.wikipedia.org/wiki/Greensboro,_North_Carolina	36deg4'48''N	79deg49'10''W	http://www.greensboro.com	http://www.greensboro.com/robots.txt	['https://www.greensboro.com/sitemap.xml', 'https://www.greensboro.com/tncms/sitemap/editorial.xml']	https://www.greensboro.com/tncms/sitemap/news.xml																																																																																																																																																																																																													
Carolina Peacemaker	Greensboro, North Carolina	Greensboro	North Carolina	https://en.wikipedia.org/wiki/Carolina_Peacemaker	https://en.wikipedia.org/wiki/Greensboro,_North_Carolina	36deg4'48''N	79deg49'10''W	http://www.peacemakeronline.com	http://www.peacemakeronline.com/robots.txt	[]																																																																																																																																																																																																														
Rhino Times	Greensboro, North Carolina	Greensboro	North Carolina	https://en.wikipedia.org/wiki/Rhino_Times	https://en.wikipedia.org/wiki/Greensboro,_North_Carolina	36deg4'48''N	79deg49'10''W	http://www.rhinotimes.com	http://www.rhinotimes.com/robots.txt	[]																																																																																																																																																																																																														
Yes! Weekly	Greensboro, North Carolina	Greensboro	North Carolina	https://en.wikipedia.org/wiki/Yes!_Weekly	https://en.wikipedia.org/wiki/Greensboro,_North_Carolina	36deg4'48''N	79deg49'10''W	http://yesweekly.com/	http://yesweekly.com/robots.txt	['https://www.yesweekly.com/sitemap.xml']	https://www.yesweekly.com/tncms/sitemap/news.xml																																																																																																																																																																																																													
Hartford Courant	Hartford, Connecticut	Hartford	Connecticut	https://en.wikipedia.org/wiki/Hartford_Courant	https://en.wikipedia.org/wiki/Hartford,_Connecticut	41deg45'45''N	72deg40'27''W	http://www.courant.com	http://www.courant.com/robots.txt	['https://www.courant.com/arcio/sitemap-index/']	https://www.courant.com/arcio/news-sitemap/	https://www.courant.com/arcio/sitemap/	https://www.courant.com/arcio/sitemap/?from=100																																																																																																																																																																																																											
High Point Enterprise	High Point, North Carolina	High Point	North Carolina	https://en.wikipedia.org/wiki/High_Point_Enterprise	https://en.wikipedia.org/wiki/High_Point,_North_Carolina	35deg58'14''N	79deg59'51''W	http://www.hpenews.com	http://www.hpenews.com/robots.txt	[]																																																																																																																																																																																																														
Honolulu Star-Advertiser	Honolulu, Hawaii	Honolulu	Hawaii	https://en.wikipedia.org/wiki/Honolulu_Star-Advertiser	https://en.wikipedia.org/wiki/Honolulu,_Hawaii	21deg18'25''N	157deg51'30''W	http://www.staradvertiser.com/	http://www.staradvertiser.com/robots.txt	[]																																																																																																																																																																																																														
Houston Chronicle	Houston, Texas	Houston	Texas	https://en.wikipedia.org/wiki/Houston_Chronicle	https://en.wikipedia.org/wiki/Houston,_Texas	29deg45'46''N	95deg22'59''W	http://HoustonChronicle.com/	http://houstonchronicle.com/robots.txt	['https://www.houstonchronicle.com/sitemap.xml', 'https://www.houstonchronicle.com/sitemap_news.xml']	https://www.houstonchronicle.com/sitemap/news/local.xml	https://www.houstonchronicle.com/sitemap/15160000-15165000.xml																																																																																																																																																																																																												
Houston Press	Houston, Texas	Houston	Texas	https://en.wikipedia.org/wiki/Houston_Press	https://en.wikipedia.org/wiki/Houston,_Texas	29deg45'46''N	95deg22'59''W	http://houstonpress.com	http://houstonpress.com/robots.txt	['http://www.houstonpress.com/sitemap']	https://www.houstonpress.com/sitemap/content/1																																																																																																																																																																																																													
The Indianapolis Star	Indianapolis, Indiana	Indianapolis	Indiana	https://en.wikipedia.org/wiki/The_Indianapolis_Star	https://en.wikipedia.org/wiki/Indianapolis,_Indiana	39deg46'07''N	86deg09'29''W	http://www.indystar.com	http://www.indystar.com/robots.txt	['https://www.indystar.com/news-sitemap.xml', 'https://www.indystar.com/web-sitemap-index.xml', 'https://www.indystar.com/video-sitemap-index.xml']	https://www.indystar.com/news-sitemap.xml	https://www.gannett-cdn.com/sitemaps/PIND/video/video-sitemap-2020-03.xml			https://www.gannett-cdn.com/sitemaps/PIND/video/video-sitemap-%Y-%m.xml																																																																																																																																																																																																									
The Florida Times-Union	Jacksonville, Florida	Jacksonville	Florida	https://en.wikipedia.org/wiki/The_Florida_Times-Union	https://en.wikipedia.org/wiki/Jacksonville,_Florida	30deg20'13''N	81deg39'41''W	http://jacksonville.com	http://jacksonville.com/robots.txt	['http://jacksonville.com/section/google-news-sitemap', 'http://jacksonville.com/section/google-recent-sitemap-index', 'http://jacksonville.com/section/google-sitemap-index', 'http://jacksonville.com/section/google-gal-sitemap-index', 'http://jacksonville.com/section/google-zz-sitemap-index']	https://www.jacksonville.com/section/google-news-sitemap																																																																																																																																																																																																													
Kansas City Star	Kansas City, Missouri	Kansas City	Missouri	https://en.wikipedia.org/wiki/Kansas_City_Star	https://en.wikipedia.org/wiki/Kansas_City,_Missouri	39deg05'59''N	94deg34'42''W	http://www.kansascity.com	http://www.kansascity.com/robots.txt	['https://www.kansascity.com/sitemap/story/update.xml', 'https://www.kansascity.com/sitemap/story/archive.xml', 'https://www.kansascity.com/sitemap/story/googlenews.xml', 'https://www.kansascity.com/sitemap/blogpost/update.xml', 'https://www.kansascity.com/sitemap/blogpost/archive.xml', 'https://www.kansascity.com/sitemap/blogpost/googlenews.xml', 'https://www.kansascity.com/sitemap/video/update.xml', 'https://www.kansascity.com/sitemap/video/archive.xml', 'https://www.kansascity.com/sitemap/update/sections.xml', 'https://www.kansascity.com/sitemap/archive/sections.xml']	https://www.kansascity.com/sitemap/story/googlenews.xml	https://www.kansascity.com/sitemap/story/update.xml																																																																																																																																																																																																												
Knoxville News Sentinel	Knoxville, Tennessee	Knoxville	Tennessee	https://en.wikipedia.org/wiki/Knoxville_News_Sentinel	https://en.wikipedia.org/wiki/Knoxville,_Tennessee	35deg57'42''N	83deg55'24''W	https://www.knoxnews.com/	https://www.knoxnews.com/robots.txt	['https://www.knoxnews.com/news-sitemap.xml', 'https://www.knoxnews.com/web-sitemap-index.xml', 'https://www.knoxnews.com/video-sitemap-index.xml']																																																																																																																																																																																																														
Lexington Herald-Leader	Lexington, Kentucky	Lexington	Kentucky	https://en.wikipedia.org/wiki/Lexington_Herald-Leader	https://en.wikipedia.org/wiki/Lexington,_Kentucky	38deg01'47''N	84deg29'41''W	http://www.kentucky.com/	http://www.kentucky.com/robots.txt	['https://www.kentucky.com/sitemap/story/update.xml', 'https://www.kentucky.com/sitemap/story/archive.xml', 'https://www.kentucky.com/sitemap/story/googlenews.xml', 'https://www.kentucky.com/sitemap/blogpost/update.xml', 'https://www.kentucky.com/sitemap/blogpost/archive.xml', 'https://www.kentucky.com/sitemap/blogpost/googlenews.xml', 'https://www.kentucky.com/sitemap/video/update.xml', 'https://www.kentucky.com/sitemap/video/archive.xml', 'https://www.kentucky.com/sitemap/update/sections.xml', 'https://www.kentucky.com/sitemap/archive/sections.xml']	https://www.kentucky.com/sitemap/story/googlenews.xml	https://www.kentucky.com/sitemap/story/update.xml																																																																																																																																																																																																												
Arkansas Democrat-Gazette	Little Rock, Arkansas	Little Rock	Arkansas	https://en.wikipedia.org/wiki/Arkansas_Democrat-Gazette	https://en.wikipedia.org/wiki/Little_Rock,_Arkansas	34deg44'10''N	92deg19'52''W	http://www.arkansasonline.com/	http://www.arkansasonline.com/robots.txt	[]																																																																																																																																																																																																														
Daily Breeze	Los Angeles, California	Los Angeles	California	https://en.wikipedia.org/wiki/Daily_Breeze	https://en.wikipedia.org/wiki/Los_Angeles,_California	34deg03'N	118deg15'W	http://dailybreeze.com	http://dailybreeze.com/robots.txt	['https://www.dailybreeze.com/sitemap.xml']	https://www.dailybreeze.com/sitemap.xml?yyyy=2020&mm=03&dd=29				https://www.dailybreeze.com/sitemap.xml?yyyy=%Y&mm=%m&dd=%d																																																																																																																																																																																																									
The Courier-Journal	Louisville, Kentucky	Louisville	Kentucky	https://en.wikipedia.org/wiki/The_Courier-Journal	https://en.wikipedia.org/wiki/Louisville,_Kentucky	38deg13.52'N	85deg44.5'W	https://courier-journal.com/	https://courier-journal.com/robots.txt	['https://www.courier-journal.com/news-sitemap.xml', 'https://www.courier-journal.com/web-sitemap-index.xml', 'https://www.courier-journal.com/video-sitemap-index.xml']	https://www.courier-journal.com/news-sitemap.xml			https://www.gannett-cdn.com/sitemaps/PLOU/web/web-sitemap-%Y-%m.xml																																																																																																																																																																																																										
The Telegraph	Macon, Georgia	Macon	Georgia	https://en.wikipedia.org/wiki/The_Telegraph_(Macon)	https://en.wikipedia.org/wiki/Macon,_Georgia	32deg50'5''N	83deg39'6''W	http://www.macon.com/	http://www.macon.com/robots.txt	['https://www.macon.com/sitemap/story/update.xml', 'https://www.macon.com/sitemap/story/archive.xml', 'https://www.macon.com/sitemap/story/googlenews.xml', 'https://www.macon.com/sitemap/blogpost/update.xml', 'https://www.macon.com/sitemap/blogpost/archive.xml', 'https://www.macon.com/sitemap/blogpost/googlenews.xml', 'https://www.macon.com/sitemap/video/update.xml', 'https://www.macon.com/sitemap/video/archive.xml', 'https://www.macon.com/sitemap/update/sections.xml', 'https://www.macon.com/sitemap/archive/sections.xml']	https://www.macon.com/sitemap/story/googlenews.xml	https://www.macon.com/sitemap/story/update.xml																																																																																																																																																																																																												
Wisconsin State Journal	Madison, Wisconsin	Madison	Wisconsin	https://en.wikipedia.org/wiki/Wisconsin_State_Journal	https://en.wikipedia.org/wiki/Madison,_Wisconsin	43deg4'N	89deg24'W	http://host.madison.com/wsj/	http://host.madison.com/robots.txt	['https://madison.com/sitemap.xml']																																																																																																																																																																																																														
The Capital Times	Madison, Wisconsin	Madison	Wisconsin	https://en.wikipedia.org/wiki/The_Capital_Times	https://en.wikipedia.org/wiki/Madison,_Wisconsin	43deg4'N	89deg24'W	http://www.madison.com/tct/	http://www.madison.com/robots.txt	['https://madison.com/sitemap.xml']	https://madison.com/tncms/sitemap/news.xml																																																																																																																																																																																																													
Isthmus	Madison, Wisconsin	Madison	Wisconsin	https://en.wikipedia.org/wiki/Isthmus_(newspaper)	https://en.wikipedia.org/wiki/Madison,_Wisconsin	43deg4'N	89deg24'W	http://www.isthmus.com	http://www.isthmus.com/robots.txt	['https://isthmus.com/sitemap.xml', 'https://isthmus.com/sitemap_news.xml']	https://isthmus.com/sitemap_news.xml																																																																																																																																																																																																													
New Hampshire Union Leader	Manchester, New Hampshire	Manchester	New Hampshire	https://en.wikipedia.org/wiki/New_Hampshire_Union_Leader	https://en.wikipedia.org/wiki/Manchester,_New_Hampshire	42deg59'27''N	71deg27'49''W	http://unionleader.com/	http://unionleader.com/robots.txt	['https://www.unionleader.com/sitemap.xml']	http://www.unionleader.com/tncms/sitemap/news.xml																																																																																																																																																																																																													
The Commercial Appeal	Memphis, Tennessee	Memphis	Tennessee	https://en.wikipedia.org/wiki/The_Commercial_Appeal	https://en.wikipedia.org/wiki/Memphis,_Tennessee	35deg07'03''N	89deg58'16''W	http://commercialappeal.com	http://commercialappeal.com/robots.txt	['https://www.commercialappeal.com/news-sitemap.xml', 'https://www.commercialappeal.com/web-sitemap-index.xml', 'https://www.commercialappeal.com/video-sitemap-index.xml']	https://www.commercialappeal.com/news-sitemap.xml																																																																																																																																																																																																													
The Miami Herald	Miami, Florida	Miami	Florida	https://en.wikipedia.org/wiki/The_Miami_Herald	https://en.wikipedia.org/wiki/Miami,_Florida	25deg46'31''N	80deg12'32''W	http://miamiherald.com	http://miamiherald.com/robots.txt	['https://www.miamiherald.com/sitemap/story/update.xml', 'https://www.miamiherald.com/sitemap/story/archive.xml', 'https://www.miamiherald.com/sitemap/story/googlenews.xml', 'https://www.miamiherald.com/sitemap/blogpost/update.xml', 'https://www.miamiherald.com/sitemap/blogpost/archive.xml', 'https://www.miamiherald.com/sitemap/blogpost/googlenews.xml', 'https://www.miamiherald.com/sitemap/video/update.xml', 'https://www.miamiherald.com/sitemap/video/archive.xml', 'https://www.miamiherald.com/sitemap/update/sections.xml', 'https://www.miamiherald.com/sitemap/archive/sections.xml']	https://www.miamiherald.com/sitemap/story/googlenews.xml																																																																																																																																																																																																													
South Florida Sun-Sentinel	Miami, Florida	Miami	Florida	https://en.wikipedia.org/wiki/Sun-Sentinel	https://en.wikipedia.org/wiki/Miami,_Florida	25deg46'31''N	80deg12'32''W	http://www.sun-sentinel.com/	http://www.sun-sentinel.com/robots.txt	['https://www.sun-sentinel.com/arcio/sitemap-index/']	https://www.sun-sentinel.com/arcio/news-sitemap/																																																																																																																																																																																																													
Milwaukee Journal Sentinel	Milwaukee, Wisconsin	Milwaukee	Wisconsin	https://en.wikipedia.org/wiki/Milwaukee_Journal_Sentinel	https://en.wikipedia.org/wiki/Milwaukee,_Wisconsin	43deg03'N	87deg57'W	http://www.jsonline.com/	http://www.jsonline.com/robots.txt	['https://www.jsonline.com/news-sitemap.xml', 'https://www.jsonline.com/web-sitemap-index.xml', 'https://www.jsonline.com/video-sitemap-index.xml']	https://www.jsonline.com/news-sitemap.xml																																																																																																																																																																																																													
Shepherd Express	Milwaukee, Wisconsin	Milwaukee	Wisconsin	https://en.wikipedia.org/wiki/Shepherd_Express	https://en.wikipedia.org/wiki/Milwaukee,_Wisconsin	43deg03'N	87deg57'W	http://www.shepherdexpress.com/	http://www.shepherdexpress.com/robots.txt	['https://shepherdexpress.com/sitemap.xml', 'https://shepherdexpress.com/sitemap_news.xml', 'https://shepherdexpress.com/cs_events_sitemap.xml']	https://shepherdexpress.com/sitemap_news.xml																																																																																																																																																																																																													
The Catholic Spirit	Minneapolis-St. Paul, Minnesota	Minneapolis-St. Paul	Minnesota	https://en.wikipedia.org/wiki/The_Catholic_Spirit	https://en.wikipedia.org/wiki/Minneapolis-St._Paul,_Minnesota	44deg57'N	93deg12'W	http://thecatholicspirit.com	http://thecatholicspirit.com/robots.txt	[]																																																																																																																																																																																																														
St. Paul Pioneer Press	Minneapolis-St. Paul, Minnesota	Minneapolis-St. Paul	Minnesota	https://en.wikipedia.org/wiki/St._Paul_Pioneer_Press	https://en.wikipedia.org/wiki/Minneapolis-St._Paul,_Minnesota	44deg57'N	93deg12'W	https://www.twincities.com/	https://www.twincities.com/robots.txt	['https://www.twincities.com/sitemap.xml']					https://www.twincities.com/sitemap.xml?yyyy=%Y&mm=%m&dd=%d																																																																																																																																																																																																									
The Daily News Journal	Murfreesboro, Tennessee	Murfreesboro	Tennessee	https://en.wikipedia.org/wiki/The_Daily_News_Journal	https://en.wikipedia.org/wiki/Murfreesboro,_Tennessee	35deg50'46''N	86deg23'31''W	http://www.dnj.com	http://www.dnj.com/robots.txt	['https://www.dnj.com/news-sitemap.xml', 'https://www.dnj.com/web-sitemap-index.xml', 'https://www.dnj.com/video-sitemap-index.xml']	https://www.dnj.com/news-sitemap.xml				https://www.gannett-cdn.com/sitemaps/PMUR/web/web-sitemap-%Y-%m.xml																																																																																																																																																																																																									
The Tennessean	Nashville, Tennessee	Nashville	Tennessee	https://en.wikipedia.org/wiki/The_Tennessean	https://en.wikipedia.org/wiki/Nashville,_Tennessee	36deg10'00''N	86deg47'00''W	/wiki/MMAjunkie.com		[]																																																																																																																																																																																																														
Gambit Weekly	New Orleans, Louisiana	New Orleans	Louisiana	https://en.wikipedia.org/wiki/Gambit_Weekly	https://en.wikipedia.org/wiki/New_Orleans,_Louisiana	29deg57'N	90deg05'W	http://bestofneworleans.com/	http://bestofneworleans.com/robots.txt	[]																																																																																																																																																																																																														
Louisiana Weekly	New Orleans, Louisiana	New Orleans	Louisiana	https://en.wikipedia.org/wiki/Louisiana_Weekly	https://en.wikipedia.org/wiki/New_Orleans,_Louisiana	29deg57'N	90deg05'W	http://www.louisianaweekly.com	http://www.louisianaweekly.com/robots.txt	[]																																																																																																																																																																																																														
The Times-Picayune | The New Orleans Advocate	New Orleans, Louisiana	New Orleans	Louisiana	https://en.wikipedia.org/wiki/The_Times-Picayune/The_New_Orleans_Advocate	https://en.wikipedia.org/wiki/New_Orleans,_Louisiana	29deg57'N	90deg05'W	https://www.nola.com/	https://www.nola.com/robots.txt	['https://www.nola.com/sitemap.xml']																																																																																																																																																																																																														
Newsday	New York City, New York	New York City	New York	https://en.wikipedia.org/wiki/Newsday	https://en.wikipedia.org/wiki/New_York_City,_New_York	40deg39'40''N	73deg56'38''W	http://www.newsday.com	http://www.newsday.com/robots.txt	['https://www.newsday.com/xml/sitemaps', 'https://www.newsday.com/xml/sitemaps?type=imagegallery', 'https://www.newsday.com/xml/sitemaps?type=fronts', 'https://projects.newsday.com/sitemap_index.xml', 'https://projects.newsday.com/voters-guide/sitemap.xml', 'https://projects.newsday.com/schools/sitemap.xml', 'https://projects.newsday.com/payrolls/sitemap_index.xml', 'https://www.newsday.com/xml/newsday-sitemap-7.4670280']					https://www.newsday.com/xml/sitemaps?type=article&year=%Y&month=%m																																																																																																																																																																																																									
The Star-Ledger	Newark, New Jersey	Newark	New Jersey	https://en.wikipedia.org/wiki/The_Star-Ledger	https://en.wikipedia.org/wiki/Newark,_New_Jersey	40deg43'N	74deg10'W	https://www.nj.com/starledger/	https://www.nj.com/robots.txt	['https://www.nj.com/arcio/news-sitemap/', 'https://www.nj.com/sitemap2.xml']	https://www.nj.com/arcio/news-sitemap/',																																																																																																																																																																																																													
Daily Press	Newport News, Virginia	Newport News	Virginia	https://en.wikipedia.org/wiki/Daily_Press_(Virginia)	https://en.wikipedia.org/wiki/Newport_News,_Virginia	37deg4'15''N	76deg29'4''W	http://dailypress.com	http://dailypress.com/robots.txt	['https://www.dailypress.com/arcio/sitemap-index/']	https://www.dailypress.com/arcio/news-sitemap/																																																																																																																																																																																																													
The Virginian-Pilot	Norfolk, Virginia	Norfolk	Virginia	https://en.wikipedia.org/wiki/The_Virginian-Pilot	https://en.wikipedia.org/wiki/Norfolk,_Virginia	36deg55'N	76deg12'W	https://www.pilotonline.com/	https://www.pilotonline.com/robots.txt	['https://www.pilotonline.com/arcio/sitemap-index/']	https://www.pilotonline.com/arcio/news-sitemap/																																																																																																																																																																																																													
The Oklahoma Gazette	Oklahoma City, Oklahoma	Oklahoma City	Oklahoma	https://en.wikipedia.org/wiki/The_Oklahoma_Gazette	https://en.wikipedia.org/wiki/Oklahoma_City,_Oklahoma	35deg28'7''N	97deg31'17''W	http://okgazette.com/	http://okgazette.com/robots.txt	['https://www.okgazette.com/oklahoma/Sitemap.xml']	https://www.okgazette.com/oklahoma/Sitemap.xml?id=News																																																																																																																																																																																																													
The Oklahoman	Oklahoma City, Oklahoma	Oklahoma City	Oklahoma	https://en.wikipedia.org/wiki/The_Oklahoman	https://en.wikipedia.org/wiki/Oklahoma_City,_Oklahoma	35deg28'7''N	97deg31'17''W	http://www.oklahoman.com	http://www.oklahoman.com/robots.txt	[]																																																																																																																																																																																																														
Omaha World-Herald	Omaha, Nebraska	Omaha	Nebraska	https://en.wikipedia.org/wiki/Omaha_World-Herald	https://en.wikipedia.org/wiki/Omaha,_Nebraska	41deg15'N	96deg0'W	http://omaha.com	http://omaha.com/robots.txt	['https://www.omaha.com/sitemap.xml', 'https://www.omaha.com/tncms/sitemap/editorial.xml']	https://www.omaha.com/tncms/sitemap/news.xml																																																																																																																																																																																																													
The Philadelphia Inquirer	Philadelphia, Pennsylvania	Philadelphia	Pennsylvania	https://en.wikipedia.org/wiki/The_Philadelphia_Inquirer	https://en.wikipedia.org/wiki/Philadelphia,_Pennsylvania	39deg57'10''N	75deg09'49''W	http://www.inquirer.com	http://www.inquirer.com/robots.txt	['https://www.inquirer.com/sitemaps/48hour-news-sitemap-i.xml', 'https://www.inquirer.com/sitemaps/current-month-sitemap-i.xml', 'https://www.inquirer.com/sitemaps/archive-sitemap-index-i.xml']	https://www.inquirer.com/sitemaps/current-month-sitemap-i.xml																																																																																																																																																																																																													
The Arizona Republic	Phoenix, Arizona	Phoenix	Arizona	https://en.wikipedia.org/wiki/The_Arizona_Republic	https://en.wikipedia.org/wiki/Phoenix,_Arizona	33deg27'N	112deg04'W	http://www.azcentral.com	http://www.azcentral.com/robots.txt	['https://www.azcentral.com/news-sitemap.xml', 'https://www.azcentral.com/web-sitemap-index.xml', 'https://www.azcentral.com/video-sitemap-index.xml']	https://www.azcentral.com/news-sitemap.xml'																																																																																																																																																																																																													
Pittsburgh Post-Gazette	Pittsburgh, Pennsylvania	Pittsburgh	Pennsylvania	https://en.wikipedia.org/wiki/Pittsburgh_Post-Gazette	https://en.wikipedia.org/wiki/Pittsburgh,_Pennsylvania	40deg26'23''N	79deg58'35''W	http://www.post-gazette.com	http://www.post-gazette.com/robots.txt	['https://www.post-gazette.com/sitemaps/ssl/news-sitemap.xml', 'https://www.post-gazette.com/sitemaps/ssl/sitemap.xml']	https://www.post-gazette.com/sitemaps/ssl/news-sitemap.xml																																																																																																																																																																																																													
Pittsburgh Tribune-Review	Pittsburgh, Pennsylvania	Pittsburgh	Pennsylvania	https://en.wikipedia.org/wiki/Pittsburgh_Tribune-Review	https://en.wikipedia.org/wiki/Pittsburgh,_Pennsylvania	40deg26'23''N	79deg58'35''W	http://www.triblive.com	http://www.triblive.com/robots.txt	['https://triblive.com/sitemap.xml']	https://triblive.com/sitemap-pt-post-2020-04.xml																																																																																																																																																																																																													
The Oregonian	Portland, Oregon	Portland	Oregon	https://en.wikipedia.org/wiki/The_Oregonian	https://en.wikipedia.org/wiki/Portland,_Oregon	45deg31'12''N	122deg40'55''W	http://www.oregonlive.com/	http://www.oregonlive.com/robots.txt	['https://www.oregonlive.com/arcio/news-sitemap/']	https://www.oregonlive.com/arcio/news-sitemap/																																																																																																																																																																																																													
The Portland Tribune	Portland, Oregon	Portland	Oregon	https://en.wikipedia.org/wiki/The_Portland_Tribune	https://en.wikipedia.org/wiki/Portland,_Oregon	45deg31'12''N	122deg40'55''W	http://portlandtribune.com	http://portlandtribune.com/robots.txt	[]																																																																																																																																																																																																														
Willamette Week	Portland, Oregon	Portland	Oregon	https://en.wikipedia.org/wiki/Willamette_Week	https://en.wikipedia.org/wiki/Portland,_Oregon	45deg31'12''N	122deg40'55''W	http://wweek.com	http://wweek.com/robots.txt	['https://www.wweek.com/arcio/sitemap/', 'https://www.wweek.com/arcio/news-sitemap/', 'https://www.wweek.com/web-sitemap-index.xml', 'https://www.wweek.com/news-sitemap-index.xml']	https://www.wweek.com/arcio/news-sitemap																																																																																																																																																																																																													
The Providence Journal	Providence, Rhode Island	Providence	Rhode Island	https://en.wikipedia.org/wiki/The_Providence_Journal	https://en.wikipedia.org/wiki/Providence,_Rhode_Island	41deg49'25''N	71deg25'20''W	http://www.providencejournal.com/	http://www.providencejournal.com/robots.txt	['http://www.providencejournal.com/section/google-news-sitemap', 'http://www.providencejournal.com/section/google-recent-sitemap-index', 'http://www.providencejournal.com/section/google-sitemap-index', 'http://www.providencejournal.com/section/google-gal-sitemap-index', 'http://www.providencejournal.com/section/google-zz-sitemap-index']	https://www.providencejournal.com/section/google-recent-sitemap																																																																																																																																																																																																													
Indy Week	Raleigh, North Carolina	Raleigh	North Carolina	https://en.wikipedia.org/wiki/Indy_Week	https://en.wikipedia.org/wiki/Raleigh,_North_Carolina	35deg46'N	78deg38'W	http://www.indyweek.com	http://www.indyweek.com/robots.txt	['https://indyweek.com/sitemap.xml', 'https://indyweek.com/sitemap_news.xml']	https://indyweek.com/sitemap_news.xml																																																																																																																																																																																																													
The News & Observer	Raleigh, North Carolina	Raleigh	North Carolina	https://en.wikipedia.org/wiki/The_News_%26_Observer	https://en.wikipedia.org/wiki/Raleigh,_North_Carolina	35deg46'N	78deg38'W	https://www.newsobserver.com/	https://www.newsobserver.com/robots.txt	['https://www.newsobserver.com/sitemap/story/update.xml', 'https://www.newsobserver.com/sitemap/story/archive.xml', 'https://www.newsobserver.com/sitemap/story/googlenews.xml', 'https://www.newsobserver.com/sitemap/blogpost/update.xml', 'https://www.newsobserver.com/sitemap/blogpost/archive.xml', 'https://www.newsobserver.com/sitemap/blogpost/googlenews.xml', 'https://www.newsobserver.com/sitemap/video/update.xml', 'https://www.newsobserver.com/sitemap/video/archive.xml', 'https://www.newsobserver.com/sitemap/update/sections.xml', 'https://www.newsobserver.com/sitemap/archive/sections.xml']	https://www.newsobserver.com/sitemap/story/googlenews.xml																																																																																																																																																																																																													
Triangle Downtowner Magazine	Raleigh, North Carolina	Raleigh	North Carolina	https://en.wikipedia.org/wiki/Triangle_Downtowner_Magazine	https://en.wikipedia.org/wiki/Raleigh,_North_Carolina	35deg46'N	78deg38'W	http://www.WeLoveDowntown.com	http://www.welovedowntown.com/robots.txt	[]																																																																																																																																																																																																														
Richmond Times-Dispatch	Richmond, Virginia	Richmond	Virginia	https://en.wikipedia.org/wiki/Richmond_Times-Dispatch	https://en.wikipedia.org/wiki/Richmond,_Virginia	37deg32'N	77deg28'W	http://www.richmond.com/	http://www.richmond.com/robots.txt	['https://www.richmond.com/sitemap.xml']	https://www.richmond.com/tncms/sitemap/news.xml																																																																																																																																																																																																													
The Roanoke Times	Roanoke, Virginia	Roanoke	Virginia	https://en.wikipedia.org/wiki/The_Roanoke_Times	https://en.wikipedia.org/wiki/Roanoke,_Virginia	37deg16'15''N	79deg56'30''W	http://www.roanoke.com/	http://www.roanoke.com/robots.txt	['https://www.roanoke.com/sitemap.xml']	https://www.roanoke.com/tncms/sitemap/news.xml																																																																																																																																																																																																													
Post-Bulletin	Rochester, Minnesota	Rochester	Minnesota	https://en.wikipedia.org/wiki/Post-Bulletin	https://en.wikipedia.org/wiki/Rochester,_Minnesota	44deg1'24.24''N	92deg27'46.62''W	http://www.postbulletin.com/	http://www.postbulletin.com/robots.txt	['https://www.postbulletin.com/sitemap.xml']	https://www.postbulletin.com/tncms/sitemap/news.xml																																																																																																																																																																																																													
Rochester Democrat and Chronicle	Rochester, New York	Rochester	New York	https://en.wikipedia.org/wiki/Rochester_Democrat_and_Chronicle	https://en.wikipedia.org/wiki/Rochester,_New_York	43deg9'56''N	77deg36'41''W	https://www.democratandchronicle.com/	https://www.democratandchronicle.com/robots.txt	['https://www.democratandchronicle.com/news-sitemap.xml', 'https://www.democratandchronicle.com/web-sitemap-index.xml', 'https://www.democratandchronicle.com/video-sitemap-index.xml']				https://www.gannett-cdn.com/sitemaps/PROC/web/web-sitemap-%Y-%m.xml																																																																																																																																																																																																										
The Sacramento Bee	Sacramento, California	Sacramento	California	https://en.wikipedia.org/wiki/The_Sacramento_Bee	https://en.wikipedia.org/wiki/Sacramento,_California	38deg34'54''N	121deg29'40''W	http://sacbee.com/	http://sacbee.com/robots.txt	['https://www.sacbee.com/sitemap/story/update.xml', 'https://www.sacbee.com/sitemap/story/archive.xml', 'https://www.sacbee.com/sitemap/story/googlenews.xml', 'https://www.sacbee.com/sitemap/blogpost/update.xml', 'https://www.sacbee.com/sitemap/blogpost/archive.xml', 'https://www.sacbee.com/sitemap/blogpost/googlenews.xml', 'https://www.sacbee.com/sitemap/video/update.xml', 'https://www.sacbee.com/sitemap/video/archive.xml', 'https://www.sacbee.com/sitemap/update/sections.xml', 'https://www.sacbee.com/sitemap/archive/sections.xml']	https://www.sacbee.com/sitemap/story/googlenews.xml																																																																																																																																																																																																													
St. Louis Post-Dispatch	St. Louis, Missouri	St. Louis	Missouri	https://en.wikipedia.org/wiki/St._Louis_Post-Dispatch	https://en.wikipedia.org/wiki/St._Louis,_Missouri	38deg37'38''N	90deg11'52''W	http://www.stltoday.com	http://www.stltoday.com/robots.txt	['https://www.stltoday.com/sitemap.xml']	https://www.stltoday.com/tncms/sitemap/news.xml																																																																																																																																																																																																													
Deseret Morning News	Salt Lake City, Utah	Salt Lake City	Utah	https://en.wikipedia.org/wiki/Deseret_Morning_News	https://en.wikipedia.org/wiki/Salt_Lake_City,_Utah	40deg45'39''N	111deg53'28''W	http://www.deseret.com/	http://www.deseret.com/robots.txt	['https://www.deseret.com/sitemaps', 'https://www.deseret.com/sitemaps/authors', 'https://www.deseret.com/sitemaps/groups', 'https://www.deseret.com/sitemaps/videos', 'https://www.deseret.com/sitemaps/google_news']	https://www.deseret.com/sitemaps/google_news																																																																																																																																																																																																													
The Salt Lake Tribune	Salt Lake City, Utah	Salt Lake City	Utah	https://en.wikipedia.org/wiki/The_Salt_Lake_Tribune	https://en.wikipedia.org/wiki/Salt_Lake_City,_Utah	40deg45'39''N	111deg53'28''W	http://www.sltrib.com/	http://www.sltrib.com/robots.txt	['https://www.sltrib.com/arcio/sitemap/']	https://www.sltrib.com/arcio/news-sitemap/																																																																																																																																																																																																													
San Antonio Express-News	San Antonio, Texas	San Antonio	Texas	https://en.wikipedia.org/wiki/San_Antonio_Express-News	https://en.wikipedia.org/wiki/San_Antonio,_Texas	29deg25'30''N	98deg29'38''W	http://expressnews.com	http://expressnews.com/robots.txt	['https://www.expressnews.com/sitemap.xml', 'https://www.expressnews.com/sitemap_news.xml']	https://www.expressnews.com/sitemap/news/local.xml																																																																																																																																																																																																													
The San Diego Union-Tribune	San Diego, California	San Diego	California	https://en.wikipedia.org/wiki/The_San_Diego_Union-Tribune	https://en.wikipedia.org/wiki/San_Diego,_California	32deg42'54''N	117deg09'45''W	http://sandiegouniontribune.com	http://sandiegouniontribune.com/robots.txt	['https://www.sandiegouniontribune.com/sitemap.xml', 'https://www.sandiegouniontribune.com/news-sitemap.xml']	https://www.sandiegouniontribune.com/news-sitemap-content.xml	https://www.sandiegouniontribune.com/news-sitemap-latest.xml																																																																																																																																																																																																												
San Jose Mercury News	San Francisco, California	San Francisco	California	https://en.wikipedia.org/wiki/San_Jose_Mercury_News	https://en.wikipedia.org/wiki/San_Francisco,_California	37deg46'39''N	122deg24'59''W	https://www.mercurynews.com/	https://www.mercurynews.com/robots.txt	['https://www.mercurynews.com/sitemap.xml']				https://www.mercurynews.com/sitemap.xml?yyyy=%Y&mm=%m&dd=%d																																																																																																																																																																																																										
Puerto Rico Daily Sun	San Juan, Puerto Rico	San Juan	Puerto Rico	https://en.wikipedia.org/wiki/Puerto_Rico_Daily_Sun	https://en.wikipedia.org/wiki/San_Juan,_Puerto_Rico	18deg24'23''N	66deg3'50''W	https://web.archive.org/web/20111113090031/http://www.prdailysun.com/?	https://web.archive.org/robots.txt	[]																																																																																																																																																																																																														
Savannah Morning News	Savannah, Georgia	Savannah	Georgia	https://en.wikipedia.org/wiki/Savannah_Morning_News	https://en.wikipedia.org/wiki/Savannah,_Georgia	32deg1'N	81deg7'W	http://www.savannahnow.com/	http://www.savannahnow.com/robots.txt	['http://www.savannahnow.com/section/google-news-sitemap', 'http://www.savannahnow.com/section/google-recent-sitemap-index', 'http://www.savannahnow.com/section/google-sitemap-index', 'http://www.savannahnow.com/section/google-gal-sitemap-index', 'http://www.savannahnow.com/section/google-zz-sitemap-index']	http://www.savannahnow.com/section/google-news-sitemap																																																																																																																																																																																																													
The Seattle Times	Seattle, Washington	Seattle	Washington	https://en.wikipedia.org/wiki/The_Seattle_Times	https://en.wikipedia.org/wiki/Seattle,_Washington	47deg36'35''N	122deg19'59''W	http://seattletimes.com	http://seattletimes.com/robots.txt	['https://www.seattletimes.com/?sitemap=true', 'https://s3-us-west-2.amazonaws.com/st-sitemaps-production/sitemaps/video/video-sitemap1.xml', 'https://s3-us-west-2.amazonaws.com/st-sitemaps-production/sitemaps/video/video-sitemap2.xml']				https://www.seattletimes.com/?sitemap=section&sec=seattle-news&smyear=%Y																																																																																																																																																																																																										
The Stranger (newspaper)	Seattle, Washington	Seattle	Washington	https://en.wikipedia.org/wiki/The_Stranger_(newspaper)	https://en.wikipedia.org/wiki/Seattle,_Washington	47deg36'35''N	122deg19'59''W	http://www.thestranger.com	http://www.thestranger.com/robots.txt	[]																																																																																																																																																																																																														
The Times	Shreveport, Louisiana	Shreveport	Louisiana	https://en.wikipedia.org/wiki/The_Times_(Shreveport)	https://en.wikipedia.org/wiki/Shreveport,_Louisiana	32deg30'53''N	93deg44'50''W	http://www.shreveporttimes.com/	http://www.shreveporttimes.com/robots.txt	['https://www.shreveporttimes.com/news-sitemap.xml', 'https://www.shreveporttimes.com/web-sitemap-index.xml', 'https://www.shreveporttimes.com/video-sitemap-index.xml']	https://www.shreveporttimes.com/news-sitemap.xml																																																																																																																																																																																																													
The Argus Leader	Sioux Falls, South Dakota	Sioux Falls	South Dakota	https://en.wikipedia.org/wiki/The_Argus_Leader	https://en.wikipedia.org/wiki/Sioux_Falls,_South_Dakota	43deg32'11''N	96deg43'54''W	http://argusleader.com	http://argusleader.com/robots.txt	['https://www.argusleader.com/news-sitemap.xml', 'https://www.argusleader.com/web-sitemap-index.xml', 'https://www.argusleader.com/video-sitemap-index.xml']	https://www.argusleader.com/news-sitemap.xml																																																																																																																																																																																																													
The Spokesman-Review	Spokane, Washington	Spokane	Washington	https://en.wikipedia.org/wiki/The_Spokesman-Review	https://en.wikipedia.org/wiki/Spokane,_Washington	47deg39'32''N	117deg25'30''W	http://spokesman.com/	http://spokesman.com/robots.txt	[]																																																																																																																																																																																																														
Inlander	Spokane, Washington	Spokane	Washington	https://en.wikipedia.org/wiki/Inlander_(newspaper)	https://en.wikipedia.org/wiki/Spokane,_Washington	47deg39'32''N	117deg25'30''W	http://www.inlander.com/	http://www.inlander.com/robots.txt	['https://www.inlander.com/spokane/Sitemap.xml']	https://www.inlander.com/spokane/Sitemap.xml?id=News																																																																																																																																																																																																													
Tallahassee Democrat	Tallahassee, Florida	Tallahassee	Florida	https://en.wikipedia.org/wiki/Tallahassee_Democrat	https://en.wikipedia.org/wiki/Tallahassee,_Florida	30deg27'18''N	84deg15'12''W	/wiki/MMAjunkie.com		[]																																																																																																																																																																																																														
Tampa Bay Times	Tampa, Florida	Tampa	Florida	https://en.wikipedia.org/wiki/Tampa_Bay_Times	https://en.wikipedia.org/wiki/Tampa,_Florida	27deg58'05''N	82deg28'35''W	http://tampabay.com	http://tampabay.com/robots.txt	[]																																																																																																																																																																																																														
The Blade	Toledo, Ohio	Toledo	Ohio	https://en.wikipedia.org/wiki/The_Blade_(Toledo)	https://en.wikipedia.org/wiki/Toledo,_Ohio	41deg39'56''N	83deg34'31''W	http://toledoblade.com/	http://toledoblade.com/robots.txt	[]																																																																																																																																																																																																														
Toledo City Paper	Toledo, Ohio	Toledo	Ohio	https://en.wikipedia.org/wiki/Toledo_City_Paper	https://en.wikipedia.org/wiki/Toledo,_Ohio	41deg39'56''N	83deg34'31''W			[]																																																																																																																																																																																																														
Arizona Daily Star	Tucson, Arizona	Tucson	Arizona	https://en.wikipedia.org/wiki/Arizona_Daily_Star	https://en.wikipedia.org/wiki/Tucson,_Arizona	32deg13'18''N	110deg55'35''W	http://www.tucson.com/	http://www.tucson.com/robots.txt	['https://tucson.com/sitemap.xml']																																																																																																																																																																																																														
Tulsa Beacon	Tulsa, Oklahoma	Tulsa	Oklahoma	https://en.wikipedia.org/wiki/Tulsa_Beacon	https://en.wikipedia.org/wiki/Tulsa,_Oklahoma	36deg07'53''N	95deg56'14''W			[]																																																																																																																																																																																																														
Tulsa World	Tulsa, Oklahoma	Tulsa	Oklahoma	https://en.wikipedia.org/wiki/Tulsa_World	https://en.wikipedia.org/wiki/Tulsa,_Oklahoma	36deg07'53''N	95deg56'14''W	http://tulsaworld.com/	http://tulsaworld.com/robots.txt	['https://www.tulsaworld.com/sitemap.xml']																																																																																																																																																																																																														
Washington City Paper	Washington, D.C.	Washington	D.C.	https://en.wikipedia.org/wiki/Washington_City_Paper	https://en.wikipedia.org/wiki/Washington,_D.C.	38deg54'17''N	77deg00'59''W	http://washingtoncitypaper.com/	http://washingtoncitypaper.com/robots.txt	['https://www.washingtoncitypaper.com/sitemap.xml', 'https://www.washingtoncitypaper.com/sitemap-google-news.xml']																																																																																																																																																																																																														
The Washington Post	Washington, D.C.	Washington	D.C.	https://en.wikipedia.org/wiki/The_Washington_Post	https://en.wikipedia.org/wiki/Washington,_D.C.	38deg54'17''N	77deg00'59''W	https://washingtonpost.com	https://washingtonpost.com/robots.txt	['https://www.washingtonpost.com/arcio/sitemap/master/index/', 'https://www.washingtonpost.com/arcio/news-sitemap/']																																																																																																																																																																																																														
The Washington Times	Washington, D.C.	Washington	D.C.	https://en.wikipedia.org/wiki/The_Washington_Times	https://en.wikipedia.org/wiki/Washington,_D.C.	38deg54'17''N	77deg00'59''W	http://www.washingtontimes.com/	http://www.washingtontimes.com/robots.txt	['https://www.washingtontimes.com/sitemap_index.xml', 'https://www.washingtontimes.com/sitemap-stories.xml', 'https://www.washingtontimes.com/sitemap-entries.xml']																																																																																																																																																																																																														
The Wichita Eagle	Wichita, Kansas	Wichita	Kansas	https://en.wikipedia.org/wiki/The_Wichita_Eagle	https://en.wikipedia.org/wiki/Wichita,_Kansas	37deg41'20''N	97deg20'10''W	http://www.kansas.com	http://www.kansas.com/robots.txt	['https://www.kansas.com/sitemap/story/update.xml', 'https://www.kansas.com/sitemap/story/archive.xml', 'https://www.kansas.com/sitemap/story/googlenews.xml', 'https://www.kansas.com/sitemap/blogpost/update.xml', 'https://www.kansas.com/sitemap/blogpost/archive.xml', 'https://www.kansas.com/sitemap/blogpost/googlenews.xml', 'https://www.kansas.com/sitemap/video/update.xml', 'https://www.kansas.com/sitemap/video/archive.xml', 'https://www.kansas.com/sitemap/update/sections.xml', 'https://www.kansas.com/sitemap/archive/sections.xml']																																																																																																																																																																																																														
Star-News	Wilmington, North Carolina	Wilmington	North Carolina	https://en.wikipedia.org/wiki/Star-News	https://en.wikipedia.org/wiki/Wilmington,_North_Carolina	34deg13'24''N	77deg54'44''W	http://www.starnewsonline.com	http://www.starnewsonline.com/robots.txt	['http://www.starnewsonline.com/section/google-news-sitemap', 'http://www.starnewsonline.com/section/google-recent-sitemap-index', 'http://www.starnewsonline.com/section/google-sitemap-index', 'http://www.starnewsonline.com/section/google-gal-sitemap-index', 'http://www.starnewsonline.com/section/google-zz-sitemap-index']																																																																																																																																																																																																														
Winston-Salem Journal	Winston-Salem, North Carolina	Winston-Salem	North Carolina	https://en.wikipedia.org/wiki/Winston-Salem_Journal	https://en.wikipedia.org/wiki/Winston-Salem,_North_Carolina	36deg6'9.95''N	80deg15'37.77''W	http://journalnow.com	http://journalnow.com/robots.txt	['https://www.journalnow.com/sitemap.xml']																																																																																																																																																																																																														
Winston-Salem Chronicle	Winston-Salem, North Carolina	Winston-Salem	North Carolina	https://en.wikipedia.org/wiki/Winston-Salem_Chronicle	https://en.wikipedia.org/wiki/Winston-Salem,_North_Carolina	36deg6'9.95''N	80deg15'37.77''W			[]																																																																																																																																																																																																														
Telegram & Gazette	Worcester, Massachusetts	Worcester	Massachusetts	https://en.wikipedia.org/wiki/Telegram_%26_Gazette	https://en.wikipedia.org/wiki/Worcester,_Massachusetts	42deg16'17''N	71deg47'56''W	http://www.telegram.com	http://www.telegram.com/robots.txt	['http://www.telegram.com/section/google-news-sitemap', 'http://www.telegram.com/section/google-recent-sitemap-index', 'http://www.telegram.com/section/google-sitemap-index', 'http://www.telegram.com/section/google-gal-sitemap-index', 'http://www.telegram.com/section/google-zz-sitemap-index']																																																																																																																																																																																																														
San Francisco Chronicle	San Francisco, CA	San Francisco	California	https://en.wikipedia.org/wiki/San_Jose_Mercury_News	https://en.wikipedia.org/wiki/San_Francisco,_California	37deg46'39''N	122deg24'59''W	http://sfchronicle.com/			https://www.sfchronicle.com/sitemap/news/local.xml																																																																																																																																																																																																													
San Francisco Examiner	San Francisco, California	San Francisco	California	https://en.wikipedia.org/wiki/San_Jose_Mercury_News	https://en.wikipedia.org/wiki/San_Francisco,_California	37deg46'39''N	122deg24'59''W	http://sfexaminer.com/			https://www.sfexaminer.com/sitemap-news.xml																																																																																																																																																																																																													
Berkeley News	Berkeley, California	Berkeley	California	https://en.wikipedia.org/wiki/San_Jose_Mercury_News	https://en.wikipedia.org/wiki/San_Francisco,_California	37deg46'39''N	122deg24'59''W	http://news.berkeley.edu			https://news.berkeley.edu/sitemap-4.xml																																																																																																																																																																																																													
East Bay Times	Oakland, California	Oakland	California	https://en.wikipedia.org/wiki/San_Jose_Mercury_News	https://en.wikipedia.org/wiki/San_Francisco,_California	37deg46'39''N	122deg24'59''W	http://eastbaytimes.com/							https://www.eastbaytimes.com/sitemap.xml?yyyy=%Y&mm=%m&dd=%d																																																																																																																																																																																																									
San Francisco Gate	San Francisco	San Francisco	California	https://en.wikipedia.org/wiki/San_Jose_Mercury_News	https://en.wikipedia.org/wiki/San_Francisco,_California	37deg46'39''N	122deg24'59''W	https://www.sfgate.com/			https://www.sfgate.com/sitemap/news/local.xml																																																																																																																																																																																																													
San Mateo Daily Journal	San Mateo, California	San Mateo	California	https://en.wikipedia.org/wiki/San_Jose_Mercury_News	https://en.wikipedia.org/wiki/San_Francisco,_California	37deg46'39''N	122deg24'59''W	https://www.smdailyjournal.com/			https://www.smdailyjournal.com/tncms/sitemap/news.xml																																																																																																																																																																																																													
Napa Valley Register	Napa Valley, California	Napa Valley	California	https://en.wikipedia.org/wiki/San_Jose_Mercury_News	https://en.wikipedia.org/wiki/San_Francisco,_California	37deg46'39''N	122deg24'59''W	https://napavalleyregister.com/			https://napavalleyregister.com/tncms/sitemap/news.xml																																																																																																																																																																																																													
Monterey Herald	Monterey, California	Monterey	California	https://en.wikipedia.org/wiki/San_Jose_Mercury_News	https://en.wikipedia.org/wiki/San_Francisco,_California	37deg46'39''N	122deg24'59''W	https://www.montereyherald.com/							https://www.montereyherald.com/sitemap.xml?yyyy=%Y&mm=%m&dd=%d																																																																																																																																																																																																									
Davis Enterprise	Davis, California	Davis	California	https://en.wikipedia.org/wiki/San_Jose_Mercury_News	https://en.wikipedia.org/wiki/San_Francisco,_California	37deg46'39''N	122deg24'59''W	https://www.davisenterprise.com/							https://www.davisenterprise.com/sitemap.xml?yyyy=2020&mm=04&dd=28																																																																																																																																																																																																									
Marin Independent Journal	Marin, California	Marin	California	https://en.wikipedia.org/wiki/San_Jose_Mercury_News	https://en.wikipedia.org/wiki/San_Francisco,_California	37deg46'39''N	122deg24'59''W	https://www.marinij.com/							https://www.marinij.com/sitemap.xml?yyyy=%Y&mm=%m&dd=%d																																																																																																																																																																																																									
Santa Rosa Press-Democrat	Santa Rosa, California	Santa Rosa	California	https://en.wikipedia.org/wiki/San_Jose_Mercury_News	https://en.wikipedia.org/wiki/San_Francisco,_California	37deg46'39''N	122deg24'59''W	https://www.pressdemocrat.com/			https://www.pressdemocrat.com/sitemap-news.xml																																																																																																																																																																																																													
48 Hills	San Francisco, California	San Francisco	California	https://en.wikipedia.org/wiki/San_Jose_Mercury_News	https://en.wikipedia.org/wiki/San_Francisco,_California	37deg46'39''N	122deg24'59''W	https://48hills.org/			https://48hills.org/post-sitemap4.xml																																																																																																																																																																																																													
Sonoma Index-Tribune	Sonoma, California	Sonoma	California	https://en.wikipedia.org/wiki/San_Jose_Mercury_News	https://en.wikipedia.org/wiki/San_Francisco,_California	37deg46'39''N	122deg24'59''W	https://www.sonomanews.com/			https://www.sonomanews.com/sitemap-news.xml																																																																																																																																																																																																													
Vallejo Times-Herald	Vallejo, California	Vallejo	California	https://en.wikipedia.org/wiki/San_Jose_Mercury_News	https://en.wikipedia.org/wiki/San_Francisco,_California	37deg46'39''N	122deg24'59''W	https://www.timesheraldonline.com/							https://www.timesheraldonline.com/sitemap.xml?yyyy=%Y&mm=%m&dd=%d																																																																																																																																																																																																									
Stockton Record	Stockton, California	Stockton	California	https://en.wikipedia.org/wiki/San_Jose_Mercury_News	https://en.wikipedia.org/wiki/San_Francisco,_California	37deg46'39''N	122deg24'59''W	https://www.recordnet.com/			https://www.recordnet.com/section/google-recent-sitemap																																																																																																																																																																																																													
East Bay Express	Oakland, California	Oakland	California	https://en.wikipedia.org/wiki/San_Jose_Mercury_News	https://en.wikipedia.org/wiki/San_Francisco,_California	37deg46'39''N	122deg24'59''W	https://www.eastbayexpress.com/			https://www.eastbayexpress.com/oakland/Sitemap.xml?id=News																																																																																																																																																																																																													
San Francisco Weekly	San Francisco, California	San Francisco	California	https://en.wikipedia.org/wiki/San_Jose_Mercury_News	https://en.wikipedia.org/wiki/San_Francisco,_California	37deg46'39''N	122deg24'59''W	https://www.sfweekly.com/			https://www.sfweekly.com/news-sitemap.xml																																																																																																																																																																																																													
ABC7, San Francisco	San Francisco, California	San Francisco	California	https://en.wikipedia.org/wiki/San_Jose_Mercury_News	https://en.wikipedia.org/wiki/San_Francisco,_California	37deg46'39''N	122deg24'59''W	https://abc7news.com/			https://abc7news.com/sitemap/news.xml																																																																																																																																																																																																													
KRON4, San Francisco	San Francisco, California	San Francisco	California	https://en.wikipedia.org/wiki/San_Jose_Mercury_News	https://en.wikipedia.org/wiki/San_Francisco,_California	37deg46'39''N	122deg24'59''W	https://kron4.com			https://www.kron4.com/news-sitemap.xml																																																																																																																																																																																																													
NBC Bay Area	San Francisco, California	San Francisco	California	https://en.wikipedia.org/wiki/San_Jose_Mercury_News	https://en.wikipedia.org/wiki/San_Francisco,_California	37deg46'39''N	122deg24'59''W	https://www.nbcbayarea.com/			https://www.nbcbayarea.com/sitemap-news.xml?most_recent=y																																																																																																																																																																																																													
CBS San Francisco	San Francisco, California	San Francisco	California	https://en.wikipedia.org/wiki/San_Jose_Mercury_News	https://en.wikipedia.org/wiki/San_Francisco,_California	37deg46'39''N	122deg24'59''W	https://sanfrancisco.cbslocal.com/			https://sanfrancisco.cbslocal.com/news-sitemap.xml																																																																																																																																																																																																													
Santa Cruz Sentinel	Santa Cruz, California	Santa Cruz	California	https://en.wikipedia.org/wiki/San_Jose_Mercury_News	https://en.wikipedia.org/wiki/San_Francisco,_California	37deg46'39''N	122deg24'59''W	https://www.santacruzsentinel.com/							https://www.santacruzsentinel.com/sitemap.xml?yyyy=%Y&mm=%m&dd=%d																																																																																																																																																																																																									
Metro News, Silicon Valley	San Jose, California	San Jose	California					http://www.metrosiliconvalley.com/			http://www.metrosiliconvalley.com/sitemap-posttype-post.2020.xml				https://www.dailybreeze.com/sitemap.xml?yyyy=%Y&mm=%m&dd=%d																																													Good Times Santa Cruz	Santa Cruz, California	Santa Cruz	California	https://en.wikipedia.org/wiki/San_Jose_Mercury_News	https://en.wikipedia.org/wiki/San_Francisco,_California	37deg46'39''N	122deg24'59''W	http://goodtimes.sc/			http://goodtimes.sc/post-sitemap11.xml																																																																																																																																																	
Los Angeles Daily News	Los Angeles, California	Los Angeles	California					https://www.dailynews.com/sitemap.xml?yyyy=2020&mm=04&dd=28			https://www.dailynews.com/sitemap.xml?yyyy=2020&mm=04&dd=28																																																																																																																																																																																																										Daily Breeze	Torrance, California	Torrance	California